FLOCK 4BE-36            
1 60486U 24149U   26193.79656294  .00012400  00000+0  27856-3 0  9990
2 60486  97.3751 278.5445 0004472 158.4731 201.6706 15.43488814106307
FLOCK 4BE-25            
1 60487U 24149V   26193.76773848  .00010433  00000+0  26781-3 0  9993
2 60487  97.3800 277.1018 0003568 147.6318 212.5147 15.39503314106173
FLOCK 4BE-31            
1 60488U 24149W   26193.80287021  .00016295  00000+0  34610-3 0  9994
2 60488  97.3799 279.4857 0003758 157.7296 202.4117 15.45092567106338
FLOCK 4BE-20            
1 60489U 24149X   26193.80873801  .00010226  00000+0  26884-3 0  9994
2 60489  97.3699 275.9574 0004694 158.3242 201.8202 15.38770429106153
FLOCK 4BE-23            
1 60490U 24149Y   26193.74088260  .00009058  00000+0  24192-3 0  9997
2 60490  97.3796 276.2776 0004537 162.7384 197.4017 15.38322323106120
FLOCK 4BE-17            
1 60492U 24149AA  26193.75429782  .00011033  00000+0  27380-3 0  9996
2 60492  97.3777 277.3369 0004105 152.2435 207.9031 15.40520565106194
NUSAT-50 (NANCY ROMAN)  
1 60493U 24149AB  26193.80458764  .00006080  00000+0  21004-3 0  9998
2 60493  97.3788 274.8880 0004788 107.2832 252.8933 15.30294248106044
FLOCK 4BE-22            
1 60494U 24149AC  26193.77758919  .00012381  00000+0  29292-3 0  9998
2 60494  97.3736 277.5931 0004562 161.1009 199.0408 15.41936586106241
FLOCK 4BE-34            
1 60495U 24149AD  26193.79509814  .00011602  00000+0  27495-3 0  9997
2 60495  97.3783 278.4489 0004595 167.4136 192.7227 15.41901883106272
TYCHE                   
1 60496U 24149AE  26193.84180556  .00002653  00000+0  10659-3 0  9992
2 60496  97.3753 271.3129 0002872 171.6280 188.5007 15.25819157105818
FLOCK 4BE-32            
1 60497U 24149AF  26193.81091813  .00014125  00000+0  32184-3 0  9991
2 60497  97.3726 278.0282 0004650 165.6683 194.4697 15.43033515106288
NUSAT-48 (HENRIETTA LE*)
1 60498U 24149AG  26193.72814406  .00005428  00000+0  18809-3 0  9997
2 60498  97.3925 275.0995 0004569 165.4244 194.7129 15.30248764106045
NUSAT-49 (KLARA DAN VO*)
1 60500U 24149AJ  26193.76999975  .00006049  00000+0  20862-3 0  9992
2 60500  97.3781 274.8857 0002280 169.7300 190.3987 15.30358383106044
FLOCK 4BE-11            
1 60501U 24149AK  26193.79215935  .00014040  00000+0  31155-3 0  9990
2 60501  97.3700 278.2646 0004819 164.5778 195.5618 15.43823884106306
YAM-7                   
1 60504U 24149AN  26193.79209227  .00004830  00000+0  15806-3 0  9991
2 60504  97.3784 273.9417 0003418 175.4951 184.6323 15.32162294105970
FLOCK 4BE-24            
1 60505U 24149AP  26193.77619215  .00015869  00000+0  34929-3 0  9993
2 60505  97.3717 278.5154 0004802 176.9506 183.1772 15.44037965106316
LUR-1                   
1 60506U 24149AQ  26193.68045110  .00004044  00000+0  14004-3 0  9996
2 60506  97.3736 272.3280 0003749 191.4435 168.6721 15.30425896105873
TANAGER-1               
1 60507U 24149AR  26193.23246483  .00000202  00000+0  63026-5 0  9996
2 60507  97.2303 287.3864 0001965 177.3872 182.7387 15.43907540106908
EAGLEEYE                
1 60508U 24149AS  26193.79905174  .00117896  00000+0  74167-3 0  9991
2 60508  97.3726 288.6487 0004706 190.1430 169.9741 15.76349963106965
FLOCK 4BE-29            
1 60509U 24149AT  26193.76923590  .00036693  00000+0  76848-3 0  9994
2 60509  97.3809 280.0431 0003286 178.7826 181.3431 15.45342130106369
TRANSPORTER-11 OBJECT AU
1 60510U 24149AU  26193.77935015  .00011360  00000+0  27806-3 0  9996
2 60510  97.3733 277.7155 0004017 175.9885 184.1395 15.40930717106257
FLOCK 4BE-2             
1 60511U 24149AV  26193.04148874  .00044830  00000+0  65247-3 0  9995
2 60511  97.3833 281.0962 0005144 180.9826 179.1420 15.55608654106369
FLOCK 4BE-13            
1 60512U 24149AW  26193.78489250  .00010533  00000+0  24430-3 0  9995
2 60512  97.3723 278.4733 0004930 162.9128 197.2286 15.42573518106313
FLOCK 4BE-27            
1 60513U 24149AX  26193.75397669  .00006260  00000+0  18739-3 0  9992
2 60513  97.3827 275.6235 0003725 189.8729 170.2442 15.34889413106063
FLOCK 4BE-9             
1 60514U 24149AY  26193.67171821  .00009825  00000+0  23602-3 0  9999
2 60514  97.3800 278.2012 0003563 176.7939 183.3331 15.41542438106248
FLOCK 4BE-6             
1 60516U 24149BA  26193.78608034  .00010444  00000+0  26142-3 0  9995
2 60516  97.3792 277.6273 0004166 181.2202 178.9035 15.40274107106218
FLOCK 4BE-14            
1 60517U 24149BB  26193.74539639  .00012839  00000+0  30497-3 0  9994
2 60517  97.3699 277.7467 0005084 184.6362 175.4839 15.41804338106260
FLOCK 4BE-1             
1 60518U 24149BC  26193.73438582  .00012502  00000+0  28117-3 0  9992
2 60518  97.3783 279.1056 0004786 183.5016 176.6199 15.43453585106311
